GLOBALSTAR M075         
1 37192U 10054E   25043.61105122 -.00000115  00000+0 -64827-4 0  9993
2 37192  51.9925 200.8418 0001018 100.5900 338.7270 12.62272939660110
GLOBALSTAR M073         
1 37193U 10054F   25043.43863051 -.00000075  00000+0  15828-3 0  9996
2 37193  52.0056 115.0937 0000718 108.5177 265.1576 12.62263159662085
GLOBALSTAR M083         
1 37739U 11033A   25043.55893280 -.00000094  00000+0  51981-4 0  9992
2 37739  51.9861  63.6255 0000280  85.4320  56.7976 12.62271483631118
GLOBALSTAR M088         
1 37740U 11033B   25043.53883390 -.00000079  00000+0  13580-3 0  9998
2 37740  51.9779 329.2833 0000339  43.9571 127.0913 12.62265086626943
GLOBALSTAR M091         
1 37741U 11033C   25043.47338953 -.00000066  00000+0  21289-3 0  9993
2 37741  51.9999 292.8197 0000663  49.4914 123.1408 12.62264622627434
GLOBALSTAR M085         
1 37742U 11033D   25043.82115029 -.00000092  00000+0  64986-4 0  9991
2 37742  51.9845 242.9079 0000850  72.7762 300.8393 12.62265433628482
GLOBALSTAR M081         
1 37743U 11033E   25043.86692718 -.00000082  00000+0  12319-3 0  9992
2 37743  51.9935 245.4772 0001052  71.0260  31.6537 12.62260733628523
GLOBALSTAR M089         
1 37744U 11033F   25043.58423144 -.00000121  00000+0 -94070-4 0  9997
2 37744  51.9909 200.5885 0001183 101.4980 335.2165 12.62266177628959
